QIANFAN-17              
1 60395U 24140S   26025.13556465  .00000212  00000+0  30931-3 0  9997
2 60395  88.9786 294.9557 0016764  79.8904 280.4138 13.50989194 73996
QIANFAN-18              
1 60396U 24140T   26025.11496846  .00000196  00000+0  28525-3 0  9999
2 60396  88.9778 294.4883 0016075  64.4783 295.8028 13.50989136 73382
QIANFAN-19              
1 61552U 24185A   26025.09610187  .00000678  00000+0  34754-3 0  9992
2 61552  88.9779  72.9737 0008045 150.3032 209.8613 14.14347511 75793
QIANFAN-20              
1 61553U 24185B   26025.15424522  .00000655  00000+0  37130-3 0  9992
2 61553  88.9776  73.3347 0005578 181.6429 178.4738 14.08893162 75608
QIANFAN-21              
1 61554U 24185C   26025.14826482  .00000931  00000+0  40971-3 0  9997
2 61554  88.9694  71.8951 0009444 210.5671 149.4972 14.22675859 76144
QIANFAN-22              
1 61555U 24185D   26025.09670112  .00000162  00000+0  12903-3 0  9999
2 61555  88.9763  74.4970 0005480 205.7323 154.3576 13.86321283 74947
QIANFAN-23              
1 61556U 24185E   26025.15175079  .00000854  00000+0  42347-3 0  9992
2 61556  88.9771  72.7564 0008329 161.3055 198.8441 14.16345174 75899
QIANFAN-24              
1 61557U 24185F   26025.11438034  .00000880  00000+0  37785-3 0  9991
2 61557  88.9753  72.0946 0010755 146.2021 213.9858 14.23874999 76193
